[Satellite]
VERSION=1.1
NAME=ROSAT
NICKNAME=ROSAT
TLE1=1 20638U 90049A   11059.84694413  .00020069  00000-0  14989-3 0  2316
TLE2=2 20638  52.9900 263.0456 0002679 170.8640 189.2427 15.72744669157122
